ONEWEB-0320             
1 49190U 21083E   24328.78638004  .00000206  00000+0  48881-3 0  9991
2 49190  87.9094  88.9683 0001610 100.1689 259.9624 13.18686337154808
ONEWEB-0321             
1 49191U 21083F   24328.22200847 -.00000028  00000+0 -10183-3 0  9999
2 49191  87.9279  28.0284 0001682  91.3391 268.7935 13.20770140161468
ONEWEB-0322             
1 49192U 21083G   24329.27018332  .00000209  00000+0  53779-3 0  9999
2 49192  87.8937  73.6083 0001350  87.9109 272.2175 13.13473397157391
ONEWEB-0324             
1 49193U 21083H   24329.30327773 -.00000246  00000+0 -65567-3 0  9997
2 49193  87.9103  88.8454 0001674 111.7354 248.3957 13.18685768156174
ONEWEB-0325             
1 49194U 21083J   24328.32163668 -.00000082  00000+0 -24004-3 0  9999
2 49194  87.9093  89.0563 0001545  92.4831 267.6478 13.18686169154771
ONEWEB-0326             
1 49195U 21083K   24328.79113274  .00000166  00000+0  38822-3 0  9993
2 49195  87.9101  88.9574 0002024 112.6112 247.5234 13.18685785154828
ONEWEB-0327             
1 49196U 21083L   24328.41095928  .00000040  00000+0  69948-4 0  9993
2 49196  87.9100  89.0590 0001933 105.7489 254.3856 13.18685701156079
ONEWEB-0328             
1 49197U 21083M   24329.26064648 -.00000522  00000+0 -14640-2 0  9997
2 49197  87.8919  73.5781 0001548 106.2072 253.9227 13.13470374157377
